NUSAT-1 (FRESCO)        
1 41557U 16033B   22021.22851513  .00008275  00000+0  27688-3 0  9994
2 41557  97.3914 119.1454 0012343 174.6745 269.2501 15.31154329314837
BEESAT-4                
1 41619U 16040W   22020.40580994  .00007112  00000+0  26845-3 0  9995
2 41619  97.2407  75.2538 0008567 285.8591  74.1704 15.27286877298102
CAS-2T & KS-1Q          
1 41847U 16066G   22021.15558624  .00000360  00000+0  65434-4 0  9990
2 41847  98.5729  85.8636 0363668 290.3324  65.9141 14.38329500273178
NAYIF-1 (EO-88)         
1 42017U 17008BX  22021.16265323  .00006139  00000+0  21246-3 0  9991
2 42017  97.2903  89.7860 0006975  62.8564 297.3388 15.30213912274529
ZHUHAI-1 02 (CAS-4B)    
1 42759U 17034B   22021.25670370  .00002646  00000+0  16982-3 0  9995
2 42759  43.0182  63.2720 0006778  79.6076   5.5088 15.10756989254086
ZHUHAI-1 01 (CAS-4A)    
1 42761U 17034D   22021.17239466  .00002840  00000+0  18086-3 0  9999
2 42761  43.0183  62.6327 0007050  83.7186  20.0254 15.10845428254071
MAX VALIER SAT          
1 42778U 17036P   22020.69014931  .00003764  00000+0  15461-3 0  9993
2 42778  97.2277  66.9493 0012938 124.9919 235.2536 15.24714715254373
RADFXSAT (FOX-1B)       
1 43017U 17073E   22020.65547311  .00002966  00000+0  23153-3 0  9990
2 43017  97.6913 280.8685 0251717 311.5585  46.4285 14.80217573225242
FOX-1D (AO-92)          
1 43137U 18004AC  22020.73501336  .00004710  00000+0  18253-3 0  9998
2 43137  97.3858  97.4451 0008925 155.4144 204.7522 15.26598774223786
DIWATA-2B               
1 43678U 18084H   22021.24285491  .00000335  00000+0  38916-4 0  9992
2 43678  97.9481 153.0360 0011187  55.5525 304.6773 14.91884847175907
ES'HAIL 2               
1 43700U 18090A   22020.88243774  .00000155  00000+0  00000+0 0  9990
2 43700   0.0145  75.0884 0002255 259.4998 129.0893  1.00272314 11552
FOX-1CLIFF (AO-95)      
1 43770U 18099N   22020.77358670  .00000972  00000+0  92254-4 0  9990
2 43770  97.6411  90.9039 0015460  54.1764 306.0892 14.95687050170937
ITASAT 1                
1 43786U 18099AE  22020.71991520  .00001107  00000+0  10372-3 0  9999
2 43786  97.6432  91.6795 0015937  47.6771 312.5798 14.95931201170968
JY1SAT (JO-97)          
1 43803U 18099AX  22021.24529538  .00001142  00000+0  10602-3 0  9999
2 43803  97.6393  91.9293 0015804  45.2310 315.0195 14.96257764171052
UWE-4                   
1 43880U 18111E   22020.68055324  .00001908  00000+0  16933-3 0  9996
2 43880  97.6780 289.5884 0013668  95.9765 264.3015 14.97283735167588
NEXUS (FO-99)           
1 43937U 19003F   22021.09914343  .00005114  00000+0  19253-3 0  9992
2 43937  97.1505  60.4051 0021067 323.5422  36.4382 15.27331002167462
PSAT2 (NO-104)          
1 44354U 19036R   22020.54652910  .00029248  00000+0  34212-3 0  9996
2 44354  28.5258 110.2863 0289786 125.0305 237.7839 15.23162270141991
BRICSAT2 (NO-103)       
1 44355U 19036S   22021.21723139  .00117713 -33002-5  82134-3 0  9990
2 44355  28.5258  11.8697 0175743 284.7174  73.4013 15.54706887143024
JAISAT-1                
1 44419U 19038F   22020.71888418  .00003810  00000+0  20747-3 0  9998
2 44419  97.6180 350.1238 0018629 284.9507  74.9662 15.14905137140676
DUCHIFAT-3              
1 44854U 19089C   22020.97747887  .00002471  00000+0  20114-3 0  9999
2 44854  36.9651 253.8507 0006684  94.8186 265.3293 15.00004141115774
CAS-6 (TO-108)          
1 44881U 19093C   22021.21833403  .00000354  00000+0  51851-4 0  9993
2 44881  97.9075 102.4809 0014043 309.6407  50.3575 14.81546175112976
RS-44 & BREEZE-KM R/B   
1 44909U 19096E   22020.89537370  .00000016  00000+0  25600-4 0  9992
2 44909  82.5241 328.3263 0216588 304.9575  53.1353 12.79712062 96631
ORBITAL FACTORY 2 (OF-2)
1 45113U 19071C   22020.38239827  .00012506  00000+0  33106-3 0  9999
2 45113  51.6412  63.8252 0011237   1.3860 358.7154 15.38696169110530
HUSKYSAT-1 (HO-107)     
1 45119U 19071J   22020.53332241  .00009048  00000+0  24425-3 0  9997
2 45119  51.6402  62.5693 0010699 358.7824   1.3132 15.38477806110554
BY70-2                  
1 45857U 20042B   22021.25363513  .00004188  00000+0  58798-3 0  9992
2 45857  97.9695  99.6713 0010246 225.1007 134.9423 14.77926661 83704
SALSAT                  
1 46495U 20068K   22020.94239646  .00001351  00000+0  10254-3 0  9997
2 46495  97.7139 322.4222 0018891  59.0373 301.2703 15.03799941 72011
BY70-3                  
1 46839U 20079N   22021.21613203  .00012631  00000+0  35889-3 0  9991
2 46839  97.2198  95.7925 0007479 133.4034 311.1696 15.36279024 67605
RADFXSAT-2 (AO-109)     
1 47311U 21002C   22020.84904582  .00004284  00000+0  19139-3 0  9990
2 47311  60.6843 196.7662 0027323 161.3425 198.8671 15.22856543 55967
UVSQ-SAT                
1 47438U 21006AB  22020.63589715  .00003250  00000+0  18244-3 0  9996
2 47438  97.4598  82.7158 0013951  70.6258 289.6480 15.13960970 54904
DIY-1 (ARDUIQUBE)       
1 47963U 21022AH  22020.67504669  .00007375  00000+0  46693-3 0  9997
2 47963  97.5449 284.1738 0017256 284.4259  75.5055 15.09144050 44630
XW-3 (CAS-9)            
1 50466U 21131B   22021.33382045  .00000053  00000+0  32022-4 0  9994
2 50466  98.5960  98.5832 0004008 212.1423 147.9525 14.38436963  3768
